SZ-21 MODULE            
1 66515U 25246C   26067.73638915  .00047754  00000+0  41113-3 0  9994
2 66515  41.4736 209.2286 0001365 296.9264  63.1439 15.68463397 17929
SHENZHOU-22             
1 66645U 25272A   26069.29149981  .00027696  00000+0  32677-3 0  9998
2 66645  41.4662 204.4993 0006978 276.4011  83.6033 15.60691261267526
SOYUZ-MS 28             
1 66664U 25275A   26069.15865511  .00009130  00000+0  17626-3 0  9991
2 66664  51.6324  70.0375 0007971 176.2903 183.8146 15.48557200554524
DUPLEX                  
1 66906U 98067XS  26069.22830697  .00039985  00000+0  56262-3 0  9994
2 66906  51.6295  66.7564 0002512 114.8422 245.2831 15.56252991 15212
ISS OBJECT XT           
1 66907U 98067XT  26069.21962525  .00189996  00000+0  15519-2 0  9997
2 66907  51.6253  62.9330 0004725  80.8513 279.3019 15.69436118 15267
ISS OBJECT XU           
1 66908U 98067XU  26069.21778131  .00191440  00000+0  15554-2 0  9992
2 66908  51.6259  62.9179 0004867  83.0820 277.0731 15.69558818 15266
SILVERSAT               
1 66909U 98067XV  26069.21803307  .00249186  00000+0  17776-2 0  9996
2 66909  51.6252  62.1676 0005475  80.1195 280.0421 15.72479555 15278
ISS OBJECT XW           
1 66910U 98067XW  26069.02360999  .00150696  00000+0  12763-2 0  9990
2 66910  51.6250  63.8675 0005175  86.7803 273.3786 15.68689366 15233
ISS OBJECT XX           
1 66911U 98067XX  26069.15059152  .00317119  00000+0  19566-2 0  9994
2 66911  51.6208  61.6978 0006877  85.5905 274.5880 15.75641063 15260
ISS OBJECT XY           
1 66912U 98067XY  26069.22069271  .00112180  00000+0  11637-2 0  9998
2 66912  51.6272  64.4503 0003217  91.2720 268.8644 15.63798105 15239
KNACKSAT-2              
1 67683U 98067XZ  26069.24279535  .00045414  00000+0  74646-3 0  9997
2 67683  51.6312  69.1011 0009378 187.6650 172.4198 15.51877340  4870
GXIBA-1                 
1 67684U 98067YA  26068.31453739  .00079693  00000+0  11905-2 0  9999
2 67684  51.6300  73.4032 0011013 174.4815 185.6299 15.54259962  4735
CORAL                   
1 67685U 98067YB  26069.30261314  .00053003  00000+0  85674-3 0  9998
2 67685  51.6311  68.7514 0011376 184.5140 175.5749 15.52253363  4886
ISS OBJECT YC           
1 67686U 98067YC  26069.23252159  .00063974  00000+0  10125-2 0  9994
2 67686  51.6310  69.0348 0007962 152.0771 208.0648 15.52794890  4875
LEOPARD                 
1 67687U 98067YD  26069.24039375  .00047709  00000+0  77893-3 0  9993
2 67687  51.6320  69.0869 0007850 156.0408 204.0948 15.52057189  4795
ISS OBJECT YE           
1 67688U 98067YE  26069.23510562  .00059171  00000+0  94629-3 0  9997
2 67688  51.6311  69.0519 0007886 152.6899 207.4507 15.52539979  4793
